*******************************************************************************
Ephemeris / WWW_USER Tue Mar 27 22:09:45 2018 Pasadena, USA      / Horizons    
*******************************************************************************
Target body name: Phobos (401)                    {source: mar097}
Center body name: Solar System Barycenter (0)     {source: DE431mx}
Center-site name: BODY CENTER
*******************************************************************************
Start time      : A.D. 2018-Feb-08 00:00:00.0000 TDB
Stop  time      : A.D. 2023-Feb-08 00:00:00.0000 TDB
Step-size       : 7200 minutes
*******************************************************************************
Center geodetic : 0.00000000,0.00000000,0.0000000 {E-lon(deg),Lat(deg),Alt(km)}
Center cylindric: 0.00000000,0.00000000,0.0000000 {E-lon(deg),Dxy(km),Dz(km)}
Center radii    : (undefined)                                                  
Output units    : AU-D                                                         
Output type     : GEOMETRIC cartesian states
Output format   : 2 (position and velocity)
Reference frame : ICRF/J2000.0                                                 
Coordinate systm: Ecliptic and Mean Equinox of Reference Epoch                 
*******************************************************************************
JDTDB
   X     Y     Z
   VX    VY    VZ
*******************************************************************************
$$SOE
2459837.500000000 = A.D. 2022-Sep-15 00:00:00.0000 TDB 
   1.239153781299257E+00  6.985429505738702E-01 -1.578269338201139E-02
  -7.226642046882751E-03  1.269951926352410E-02  8.656928119509485E-04
2459842.500000000 = A.D. 2022-Sep-20 00:00:00.0000 TDB 
   1.206225167993653E+00  7.646108711025625E-01 -1.363056761800559E-02
  -7.029069674242010E-03  1.426591761306826E-02  5.533177315543955E-04
2459847.500000000 = A.D. 2022-Sep-25 00:00:00.0000 TDB 
   1.170096371086962E+00  8.287453775331838E-01 -1.136569283280094E-02
  -6.473556319199464E-03  1.227158761684573E-02 -7.632886233541165E-05
2459852.500000000 = A.D. 2022-Sep-30 00:00:00.0000 TDB 
   1.131103497906144E+00  8.910028075208805E-01 -9.090380092359461E-03
  -8.851974141921392E-03  1.130509472646371E-02  7.992826651566499E-04
2459857.500000000 = A.D. 2022-Oct-05 00:00:00.0000 TDB 
   1.089440508574040E+00  9.509618383378385E-01 -6.854964224041645E-03
  -8.979963616097254E-03  1.293803882833509E-02  6.852022011038101E-04
2459862.500000000 = A.D. 2022-Oct-10 00:00:00.0000 TDB 
   1.044972868392523E+00  1.008564887240489E+00 -4.529515923132406E-03
  -8.054420372713500E-03  1.119332636450709E-02 -8.091649286732425E-05
2459867.500000000 = A.D. 2022-Oct-15 00:00:00.0000 TDB 
   9.980088468752530E-01  1.063942203247046E+00 -2.193766227640078E-03
  -1.020341023883190E-02  9.734192628055471E-03  7.049527475550296E-04
2459872.500000000 = A.D. 2022-Oct-20 00:00:00.0000 TDB 
   9.488109248438081E-01  1.116724395481374E+00  7.528172992574055E-05
  -1.066874245918271E-02  1.134691235200856E-02  7.973453748433492E-04
2459877.500000000 = A.D. 2022-Oct-25 00:00:00.0000 TDB 
   8.972484812654964E-01  1.166813598238753E+00  2.408840693893796E-03
  -9.435740046105092E-03  9.931069795205215E-03 -6.994279155527284E-05
2459882.500000000 = A.D. 2022-Oct-30 00:00:00.0000 TDB 
   8.435875317690106E-01  1.214402324504157E+00  4.753755572769857E-03
  -1.127068425196391E-02  8.044173141942305E-03  5.881310352345460E-04
2459887.500000000 = A.D. 2022-Nov-04 00:00:00.0000 TDB 
   7.881470230111274E-01  1.259185526061712E+00  7.009726602319241E-03
  -1.206751701184226E-02  9.547341953549272E-03  8.848669822903178E-04
2459892.500000000 = A.D. 2022-Nov-09 00:00:00.0000 TDB 
   7.308081828669242E-01  1.301024388753158E+00  9.302643401539291E-03
  -1.060387890188336E-02  8.521070414210963E-03 -4.274440922157946E-05
2459897.500000000 = A.D. 2022-Nov-14 00:00:00.0000 TDB 
   6.717836873869601E-01  1.340159048503406E+00  1.160868764400191E-02
  -1.205500353397098E-02  6.288182853159288E-03  4.551050791552149E-04
2459902.500000000 = A.D. 2022-Nov-19 00:00:00.0000 TDB 
   6.114355069570044E-01  1.376358260016831E+00  1.380876243697842E-02
  -1.315962941265308E-02  7.594918455246824E-03  9.436581537393689E-04
2459907.500000000 = A.D. 2022-Nov-24 00:00:00.0000 TDB 
   5.496652391444600E-01  1.409443971194911E+00  1.601697656982366E-02
  -1.155203754273895E-02  6.997022926723468E-03  3.033750431894630E-07
2459912.500000000 = A.D. 2022-Nov-29 00:00:00.0000 TDB 
   4.866249281997931E-01  1.439687385983962E+00  1.824019270616079E-02
  -1.256686806555517E-02  4.513341660049554E-03  3.127944334880217E-04
2459917.500000000 = A.D. 2022-Dec-04 00:00:00.0000 TDB 
   4.227052215034358E-01  1.466937467967220E+00  2.034598252530913E-02
  -1.393839158880645E-02  5.543611867426865E-03  9.706209314107579E-04
2459922.500000000 = A.D. 2022-Dec-09 00:00:00.0000 TDB 
   3.578366201316522E-01  1.490981236619045E+00  2.243069065234001E-02
  -1.227854734579893E-02  5.389656592487946E-03  5.772376210223114E-05
2459927.500000000 = A.D. 2022-Dec-14 00:00:00.0000 TDB 
   2.921071373166576E-01  1.512103578074046E+00  2.453171329288696E-02
  -1.282357726187233E-02  2.759207304431863E-03  1.683455921003124E-04
2459932.500000000 = A.D. 2022-Dec-19 00:00:00.0000 TDB 
   2.259213603385794E-01  1.530236958989585E+00  2.650946514929218E-02
  -1.440539666290643E-02  3.444709308097686E-03  9.637852837602146E-04
2459937.500000000 = A.D. 2022-Dec-24 00:00:00.0000 TDB 
   1.592465385428930E-01  1.545140383432703E+00  2.843736269972694E-02
  -1.278524028178262E-02  3.726223741725424E-03  1.269654492258727E-04
2459942.500000000 = A.D. 2022-Dec-29 00:00:00.0000 TDB 
   9.210709170045855E-02  1.557095202254763E+00  3.038165697216768E-02
  -1.284667702052099E-02  1.057673097568798E-03  2.867633123175259E-05
2459947.500000000 = A.D. 2023-Jan-03 00:00:00.0000 TDB 
   2.490684145121885E-02  1.566117583639295E+00  3.220222222865501E-02
  -1.456927541408272E-02  1.345544937432426E-03  9.225360360756331E-04
2459952.500000000 = A.D. 2023-Jan-08 00:00:00.0000 TDB 
  -4.234367228359100E-02  1.571947763217436E+00  3.394547595246655E-02
  -1.307599638931745E-02  2.031096505207682E-03  2.044013478117027E-04
2459957.500000000 = A.D. 2023-Jan-13 00:00:00.0000 TDB 
  -1.096796625655741E-01  1.574847460038446E+00  3.570338231652923E-02
  -1.266017494367021E-02 -5.670306953556046E-04 -9.970733833603243E-05
2459962.500000000 = A.D. 2023-Jan-18 00:00:00.0000 TDB 
  -1.767122790662505E-01  1.574913670828099E+00  3.734200564250667E-02
  -1.444419740894883E-02 -7.107965587744773E-04  8.476708046983654E-04
2459967.500000000 = A.D. 2023-Jan-23 00:00:00.0000 TDB 
  -2.433830253925612E-01  1.571879045293805E+00  3.887804130204461E-02
  -1.315607245817329E-02  3.261959212622557E-04  2.856348869238401E-04
2459972.500000000 = A.D. 2023-Jan-28 00:00:00.0000 TDB 
  -3.097796772250854E-01  1.565971460944322E+00  4.042468508104825E-02
  -1.228848318266146E-02 -2.097532597752726E-03 -2.112116820596307E-04
2459977.500000000 = A.D. 2023-Feb-02 00:00:00.0000 TDB 
  -3.755416287267378E-01  1.557362978883055E+00  4.186071046936039E-02
  -1.404897690812859E-02 -2.686033624487798E-03  7.415520448319751E-04
2459982.500000000 = A.D. 2023-Feb-07 00:00:00.0000 TDB 
  -4.405600446857601E-01  1.545791145669190E+00  4.317187877779533E-02
  -1.303112888934509E-02 -1.368357830352078E-03  3.655472881297195E-04
